IRIDIUM 112             
1 41925U 17003J   23310.53743877  .00000290  00000+0  96635-4 0  9998
2 41925  86.3934 126.8920 0002113  83.9128 276.2309 14.34220366356589
IRIDIUM 111             
1 41926U 17003K   23310.59452797  .00000298  00000+0  99498-4 0  9991
2 41926  86.3936 126.9177 0001814  92.2244 267.9159 14.34220079356576
IRIDIUM 113             
1 42803U 17039A   23310.57447737  .00000823  00000+0  28687-3 0  9996
2 42803  86.4006   0.6728 0001981  90.6248 269.5175 14.34221070334508
IRIDIUM 123             
1 42804U 17039B   23310.47641626  .00000835  00000+0  29110-3 0  9994
2 42804  86.4015  32.1979 0001935  90.0243 270.1174 14.34218305333250
IRIDIUM 120             
1 42805U 17039C   23310.56813395  .00000735  00000+0  25549-3 0  9990
2 42805  86.3996   0.5816 0002067  93.9583 266.1849 14.34222620334499
IRIDIUM 115             
1 42806U 17039D   23310.54274468  .00001001  00000+0  29106-3 0  9991
2 42806  86.4534   0.5841 0001970  98.0959 262.0465 14.43381492336711
IRIDIUM 118             
1 42807U 17039E   23310.50813399  .00000859  00000+0  29958-3 0  9995
2 42807  86.4013  32.1869 0002092  93.6714 266.4721 14.34221242333256
IRIDIUM 117             
1 42808U 17039F   23310.59692757  .00000824  00000+0  28719-3 0  9994
2 42808  86.4014  32.1162 0002072  97.3118 262.8313 14.34222442333295
